{
  "type": "FeatureCollection",
  "features": [
    {
      "type": "Feature",
      "properties": {
        "norad_id": 39227,
        "name": "ARIRANG-5 (KOMPSAT-5)",
        "group": "resource",
        "lat": -27.42170278176655,
        "lon": -173.635339316838,
        "alt_km": 557.8425681686958,
        "timestamp": "2025-12-24T05:51:19.262626+00:00",
        "meta_object_name": "ARIRANG-5 (KOMPSAT-5)",
        "meta_object_id": "2013-042A",
        "meta_epoch": "2025-12-23T23:35:35.368800",
        "meta_mean_motion": 15.0447966,
        "meta_eccentricity": 0.0003109,
        "meta_inclination": 97.6159,
        "meta_ra_of_asc_node": 182.1268,
        "meta_arg_of_pericenter": 32.8392,
        "meta_mean_anomaly": 327.3027,
        "meta_ephemeris_type": 0,
        "meta_classification_type": "U",
        "meta_norad_cat_id": 39227,
        "meta_element_set_no": 999,
        "meta_rev_at_epoch": 67751,
        "meta_bstar": 0.00017262006,
        "meta_mean_motion_dot": 2.355e-05,
        "meta_mean_motion_ddot": 0,
        "tle_line1": "1 39227U 13042A   25357.98304825  .00002355  00000+0  17262-3 0  9999",
        "tle_line2": "2 39227  97.6159 182.1268 0003109  32.8392 327.3027 15.04479660677512"
      },
      "geometry": {
        "type": "Point",
        "coordinates": [
          -173.635339316838,
          -27.42170278176655
        ]
      }
    },
    {
      "type": "Feature",
      "properties": {
        "norad_id": 39418,
        "name": "SKYSAT-A",
        "group": "resource",
        "lat": -77.50280420885875,
        "lon": 84.05293398999832,
        "alt_km": 537.0813339950646,
        "timestamp": "2025-12-24T05:51:19.262636+00:00",
        "meta_object_name": "SKYSAT-A",
        "meta_object_id": "2013-066C",
        "meta_epoch": "2025-12-23T22:15:57.591360",
        "meta_mean_motion": 15.11681429,
        "meta_eccentricity": 0.00215324,
        "meta_inclination": 97.4088,
        "meta_ra_of_asc_node": 47.7959,
        "meta_arg_of_pericenter": 196.2356,
        "meta_mean_anomaly": 163.8188,
        "meta_ephemeris_type": 0,
        "meta_classification_type": "U",
        "meta_norad_cat_id": 39418,
        "meta_element_set_no": 999,
        "meta_rev_at_epoch": 66199,
        "meta_bstar": 0.00020573381,
        "meta_mean_motion_dot": 3.456e-05,
        "meta_mean_motion_ddot": 0,
        "tle_line1": "1 39418U 13066C   25357.92774990  .00003456  00000+0  20573-3 0  9997",
        "tle_line2": "2 39418  97.4088  47.7959 0021532 196.2356 163.8188 15.11681429661993"
      },
      "geometry": {
        "type": "Point",
        "coordinates": [
          84.05293398999832,
          -77.50280420885875
        ]
      }
    },
    {
      "type": "Feature",
      "properties": {
        "norad_id": 39419,
        "name": "DUBAISAT-2",
        "group": "resource",
        "lat": -70.35259204865199,
        "lon": 9.784420252268133,
        "alt_km": 541.4395838790251,
        "timestamp": "2025-12-24T05:51:19.262646+00:00",
        "meta_object_name": "DUBAISAT-2",
        "meta_object_id": "2013-066D",
        "meta_epoch": "2025-12-23T23:48:16.436160",
        "meta_mean_motion": 15.08460045,
        "meta_eccentricity": 0.00099807,
        "meta_inclination": 97.4455,
        "meta_ra_of_asc_node": 348.0524,
        "meta_arg_of_pericenter": 277.3318,
        "meta_mean_anomaly": 82.6776,
        "meta_ephemeris_type": 0,
        "meta_classification_type": "U",
        "meta_norad_cat_id": 39419,
        "meta_element_set_no": 999,
        "meta_rev_at_epoch": 65996,
        "meta_bstar": 0.00035618487,
        "meta_mean_motion_dot": 5.494e-05,
        "meta_mean_motion_ddot": 0,
        "tle_line1": "1 39419U 13066D   25357.99185690  .00005494  00000+0  35618-3 0  9998",
        "tle_line2": "2 39419  97.4455 348.0524 0009980 277.3318  82.6776 15.08460045659969"
      },
      "geometry": {
        "type": "Point",
        "coordinates": [
          9.784420252268133,
          -70.35259204865199
        ]
      }
    },
    {
      "type": "Feature",
      "properties": {
        "norad_id": 39574,
        "name": "GPM-CORE",
        "group": "resource",
        "lat": 22.194737542883,
        "lon": -16.832829578977975,
        "alt_km": 431.72469100201215,
        "timestamp": "2025-12-24T05:51:19.262656+00:00",
        "meta_object_name": "GPM-CORE",
        "meta_object_id": "2014-009C",
        "meta_epoch": "2025-12-23T21:24:55.422432",
        "meta_mean_motion": 15.44631054,
        "meta_eccentricity": 0.000917,
        "meta_inclination": 64.9724,
        "meta_ra_of_asc_node": 175.3335,
        "meta_arg_of_pericenter": 249.995,
        "meta_mean_anomaly": 110.0203,
        "meta_ephemeris_type": 0,
        "meta_classification_type": "U",
        "meta_norad_cat_id": 39574,
        "meta_element_set_no": 999,
        "meta_rev_at_epoch": 67073,
        "meta_bstar": 0.0001863823,
        "meta_mean_motion_dot": 8.493e-05,
        "meta_mean_motion_ddot": 0,
        "tle_line1": "1 39574U 14009C   25357.89230813  .00008493  00000+0  18638-3 0  9990",
        "tle_line2": "2 39574  64.9724 175.3335 0009170 249.9950 110.0203 15.44631054670737"
      },
      "geometry": {
        "type": "Point",
        "coordinates": [
          -16.832829578977975,
          22.194737542883
        ]
      }
    },
    {
      "type": "Feature",
      "properties": {
        "norad_id": 39634,
        "name": "SENTINEL-1A",
        "group": "resource",
        "lat": 40.67297844345002,
        "lon": -3.7850835478925586,
        "alt_km": 691.9307737714325,
        "timestamp": "2025-12-24T05:51:19.262666+00:00",
        "meta_object_name": "SENTINEL-1A",
        "meta_object_id": "2014-016A",
        "meta_epoch": "2025-12-23T23:05:03.948000",
        "meta_mean_motion": 14.59201719,
        "meta_eccentricity": 0.00012312,
        "meta_inclination": 98.1797,
        "meta_ra_of_asc_node": 3.0369,
        "meta_arg_of_pericenter": 87.5963,
        "meta_mean_anomaly": 272.5377,
        "meta_ephemeris_type": 0,
        "meta_classification_type": "U",
        "meta_norad_cat_id": 39634,
        "meta_element_set_no": 999,
        "meta_rev_at_epoch": 62446,
        "meta_bstar": -2.3635479e-05,
        "meta_mean_motion_dot": -1.57e-06,
        "meta_mean_motion_ddot": 0,
        "tle_line1": "1 39634U 14016A   25357.96185125 -.00000157  00000+0 -23635-4 0  9993",
        "tle_line2": "2 39634  98.1797   3.0369 0001231  87.5963 272.5377 14.59201719624468"
      },
      "geometry": {
        "type": "Point",
        "coordinates": [
          -3.7850835478925586,
          40.67297844345002
        ]
      }
    },
    {
      "type": "Feature",
      "properties": {
        "norad_id": 39731,
        "name": "KAZEOSAT 1",
        "group": "resource",
        "lat": 26.84271256310286,
        "lon": 65.63427620918924,
        "alt_km": 750.3214646932129,
        "timestamp": "2025-12-24T05:51:19.262676+00:00",
        "meta_object_name": "KAZEOSAT 1",
        "meta_object_id": "2014-024A",
        "meta_epoch": "2025-12-23T23:04:07.884768",
        "meta_mean_motion": 14.42068133,
        "meta_eccentricity": 0.00012221,
        "meta_inclination": 98.3421,
        "meta_ra_of_asc_node": 69.6164,
        "meta_arg_of_pericenter": 97.885,
        "meta_mean_anomaly": 262.2479,
        "meta_ephemeris_type": 0,
        "meta_classification_type": "U",
        "meta_norad_cat_id": 39731,
        "meta_element_set_no": 999,
        "meta_rev_at_epoch": 61330,
        "meta_bstar": 5.7069319e-05,
        "meta_mean_motion_dot": 1.45e-06,
        "meta_mean_motion_ddot": 0,
        "tle_line1": "1 39731U 14024A   25357.96120237  .00000145  00000+0  57069-4 0  9996",
        "tle_line2": "2 39731  98.3421  69.6164 0001222  97.8850 262.2479 14.42068133613305"
      },
      "geometry": {
        "type": "Point",
        "coordinates": [
          65.63427620918924,
          26.84271256310286
        ]
      }
    },
    {
      "type": "Feature",
      "properties": {
        "norad_id": 39766,
        "name": "ALOS-2",
        "group": "resource",
        "lat": 17.59743447028364,
        "lon": 90.39505234615433,
        "alt_km": 631.2650322610907,
        "timestamp": "2025-12-24T05:51:19.262686+00:00",
        "meta_object_name": "ALOS-2",
        "meta_object_id": "2014-029A",
        "meta_epoch": "2025-12-23T21:39:33.546240",
        "meta_mean_motion": 14.79470935,
        "meta_eccentricity": 0.0001368,
        "meta_inclination": 97.9228,
        "meta_ra_of_asc_node": 92.59,
        "meta_arg_of_pericenter": 97.1677,
        "meta_mean_anomaly": 262.969,
        "meta_ephemeris_type": 0,
        "meta_classification_type": "U",
        "meta_norad_cat_id": 39766,
        "meta_element_set_no": 999,
        "meta_rev_at_epoch": 62566,
        "meta_bstar": 0.00028990356,
        "meta_mean_motion_dot": 2.114e-05,
        "meta_mean_motion_ddot": 0,
        "tle_line1": "1 39766U 14029A   25357.90247160  .00002114  00000+0  28990-3 0  9996",
        "tle_line2": "2 39766  97.9228  92.5900 0001368  97.1677 262.9690 14.79470935625668"
      },
      "geometry": {
        "type": "Point",
        "coordinates": [
          90.39505234615433,
          17.59743447028364
        ]
      }
    }
  ]
}